{
  "type": "FeatureCollection",
  "features": [
    {
      "type": "Feature",
      "properties": {
        "norad_id": 66898,
        "name": "STARLINK-36065",
        "group": "last-30-days",
        "lat": -1.4635035840686077,
        "lon": -171.94120533063602,
        "alt_km": 395.06511789868546,
        "timestamp": "2025-12-26T03:50:10.808731+00:00",
        "meta_object_name": "STARLINK-36065",
        "meta_object_id": "2025-283W",
        "meta_epoch": "2025-12-25T20:00:01.999008",
        "meta_mean_motion": 15.59267283,
        "meta_eccentricity": 0.0001351,
        "meta_inclination": 53.1595,
        "meta_ra_of_asc_node": 8.5446,
        "meta_arg_of_pericenter": 79.1966,
        "meta_mean_anomaly": 69.5912,
        "meta_ephemeris_type": 0,
        "meta_classification_type": "U",
        "meta_norad_cat_id": 66898,
        "meta_element_set_no": 999,
        "meta_rev_at_epoch": 453,
        "meta_bstar": -0.027763,
        "meta_mean_motion_dot": -0.01956844,
        "meta_mean_motion_ddot": 0,
        "tle_line1": "1 66898U 25283W   25359.83335647 -.01956844  00000+0 -27763-1 0  9994",
        "tle_line2": "2 66898  53.1595   8.5446 0001351  79.1966  69.5912 15.59267283  4534"
      },
      "geometry": {
        "type": "Point",
        "coordinates": [
          -171.94120533063602,
          -1.4635035840686077
        ]
      }
    },
    {
      "type": "Feature",
      "properties": {
        "norad_id": 66899,
        "name": "STARLINK-36064",
        "group": "last-30-days",
        "lat": -2.996327119696285,
        "lon": -170.7932642824272,
        "alt_km": 395.29380593369024,
        "timestamp": "2025-12-26T03:50:10.808741+00:00",
        "meta_object_name": "STARLINK-36064",
        "meta_object_id": "2025-283X",
        "meta_epoch": "2025-12-25T20:00:01.999008",
        "meta_mean_motion": 15.59269059,
        "meta_eccentricity": 0.0001322,
        "meta_inclination": 53.1594,
        "meta_ra_of_asc_node": 8.541,
        "meta_arg_of_pericenter": 78.5497,
        "meta_mean_anomaly": 72.154,
        "meta_ephemeris_type": 0,
        "meta_classification_type": "U",
        "meta_norad_cat_id": 66899,
        "meta_element_set_no": 999,
        "meta_rev_at_epoch": 447,
        "meta_bstar": -0.027796,
        "meta_mean_motion_dot": -0.01959014,
        "meta_mean_motion_ddot": 0,
        "tle_line1": "1 66899U 25283X   25359.83335647 -.01959014  00000+0 -27796-1 0  9993",
        "tle_line2": "2 66899  53.1594   8.5410 0001322  78.5497  72.1540 15.59269059  4478"
      },
      "geometry": {
        "type": "Point",
        "coordinates": [
          -170.7932642824272,
          -2.996327119696285
        ]
      }
    },
    {
      "type": "Feature",
      "properties": {
        "norad_id": 66900,
        "name": "STARLINK-36074",
        "group": "last-30-days",
        "lat": -4.530667840924126,
        "lon": -169.6406113488895,
        "alt_km": 395.4674639263576,
        "timestamp": "2025-12-26T03:50:10.808751+00:00",
        "meta_object_name": "STARLINK-36074",
        "meta_object_id": "2025-283Y",
        "meta_epoch": "2025-12-25T20:00:01.999008",
        "meta_mean_motion": 15.592712,
        "meta_eccentricity": 0.000139,
        "meta_inclination": 53.1592,
        "meta_ra_of_asc_node": 8.5368,
        "meta_arg_of_pericenter": 83.3074,
        "meta_mean_anomaly": 69.3161,
        "meta_ephemeris_type": 0,
        "meta_classification_type": "U",
        "meta_norad_cat_id": 66900,
        "meta_element_set_no": 999,
        "meta_rev_at_epoch": 453,
        "meta_bstar": -0.027901,
        "meta_mean_motion_dot": -0.01965682,
        "meta_mean_motion_ddot": 0,
        "tle_line1": "1 66900U 25283Y   25359.83335647 -.01965682  00000+0 -27901-1 0  9992",
        "tle_line2": "2 66900  53.1592   8.5368 0001390  83.3074  69.3161 15.59271200  4536"
      },
      "geometry": {
        "type": "Point",
        "coordinates": [
          -169.6406113488895,
          -4.530667840924126
        ]
      }
    },
    {
      "type": "Feature",
      "properties": {
        "norad_id": 66901,
        "name": "STARLINK-36043",
        "group": "last-30-days",
        "lat": -6.058622168776819,
        "lon": -168.48690235620776,
        "alt_km": 395.66381073815955,
        "timestamp": "2025-12-26T03:50:10.808761+00:00",
        "meta_object_name": "STARLINK-36043",
        "meta_object_id": "2025-283Z",
        "meta_epoch": "2025-12-25T20:00:01.999008",
        "meta_mean_motion": 15.59266903,
        "meta_eccentricity": 0.0001337,
        "meta_inclination": 53.1592,
        "meta_ra_of_asc_node": 8.5322,
        "meta_arg_of_pericenter": 83.5177,
        "meta_mean_anomaly": 71.0218,
        "meta_ephemeris_type": 0,
        "meta_classification_type": "U",
        "meta_norad_cat_id": 66901,
        "meta_element_set_no": 999,
        "meta_rev_at_epoch": 453,
        "meta_bstar": -0.027763,
        "meta_mean_motion_dot": -0.01956838,
        "meta_mean_motion_ddot": 0,
        "tle_line1": "1 66901U 25283Z   25359.83335647 -.01956838  00000+0 -27763-1 0  9992",
        "tle_line2": "2 66901  53.1592   8.5322 0001337  83.5177  71.0218 15.59266903  4531"
      },
      "geometry": {
        "type": "Point",
        "coordinates": [
          -168.48690235620776,
          -6.058622168776819
        ]
      }
    },
    {
      "type": "Feature",
      "properties": {
        "norad_id": 66902,
        "name": "STARLINK-35983",
        "group": "last-30-days",
        "lat": -7.585573258862898,
        "lon": -167.32471448556888,
        "alt_km": 395.9023324250438,
        "timestamp": "2025-12-26T03:50:10.808771+00:00",
        "meta_object_name": "STARLINK-35983",
        "meta_object_id": "2025-283AA",
        "meta_epoch": "2025-12-25T20:00:01.999008",
        "meta_mean_motion": 15.59267156,
        "meta_eccentricity": 0.0001328,
        "meta_inclination": 53.1593,
        "meta_ra_of_asc_node": 8.5284,
        "meta_arg_of_pericenter": 81.1961,
        "meta_mean_anomaly": 75.2601,
        "meta_ephemeris_type": 0,
        "meta_classification_type": "U",
        "meta_norad_cat_id": 66902,
        "meta_element_set_no": 999,
        "meta_rev_at_epoch": 453,
        "meta_bstar": -0.02777,
        "meta_mean_motion_dot": -0.01957294,
        "meta_mean_motion_ddot": 0,
        "tle_line1": "1 66902U 25283AA  25359.83335647 -.01957294  00000+0 -27770-1 0  9998",
        "tle_line2": "2 66902  53.1593   8.5284 0001328  81.1961  75.2601 15.59267156  4538"
      },
      "geometry": {
        "type": "Point",
        "coordinates": [
          -167.32471448556888,
          -7.585573258862898
        ]
      }
    },
    {
      "type": "Feature",
      "properties": {
        "norad_id": 66903,
        "name": "STARLINK-36077",
        "group": "last-30-days",
        "lat": -9.109613348824952,
        "lon": -166.15366982263419,
        "alt_km": 396.09512305228964,
        "timestamp": "2025-12-26T03:50:10.808781+00:00",
        "meta_object_name": "STARLINK-36077",
        "meta_object_id": "2025-283AB",
        "meta_epoch": "2025-12-25T20:00:01.999008",
        "meta_mean_motion": 15.59267755,
        "meta_eccentricity": 0.0001344,
        "meta_inclination": 53.1594,
        "meta_ra_of_asc_node": 8.525,
        "meta_arg_of_pericenter": 82.1731,
        "meta_mean_anomaly": 76.1994,
        "meta_ephemeris_type": 0,
        "meta_classification_type": "U",
        "meta_norad_cat_id": 66903,
        "meta_element_set_no": 999,
        "meta_rev_at_epoch": 453,
        "meta_bstar": -0.027779,
        "meta_mean_motion_dot": -0.01957872,
        "meta_mean_motion_ddot": 0,
        "tle_line1": "1 66903U 25283AB  25359.83335647 -.01957872  00000+0 -27779-1 0  9990",
        "tle_line2": "2 66903  53.1594   8.5250 0001344  82.1731  76.1994 15.59267755  4537"
      },
      "geometry": {
        "type": "Point",
        "coordinates": [
          -166.15366982263419,
          -9.109613348824952
        ]
      }
    },
    {
      "type": "Feature",
      "properties": {
        "norad_id": 66904,
        "name": "STARLINK-36059",
        "group": "last-30-days",
        "lat": -10.630513151453426,
        "lon": -164.97339149395296,
        "alt_km": 396.260613778526,
        "timestamp": "2025-12-26T03:50:10.808791+00:00",
        "meta_object_name": "STARLINK-36059",
        "meta_object_id": "2025-283AC",
        "meta_epoch": "2025-12-25T20:00:01.999008",
        "meta_mean_motion": 15.5926575,
        "meta_eccentricity": 0.0001451,
        "meta_inclination": 53.1596,
        "meta_ra_of_asc_node": 8.5203,
        "meta_arg_of_pericenter": 86.2662,
        "meta_mean_anomaly": 74.0244,
        "meta_ephemeris_type": 0,
        "meta_classification_type": "U",
        "meta_norad_cat_id": 66904,
        "meta_element_set_no": 999,
        "meta_rev_at_epoch": 453,
        "meta_bstar": -0.027758,
        "meta_mean_motion_dot": -0.01956535,
        "meta_mean_motion_ddot": 0,
        "tle_line1": "1 66904U 25283AC  25359.83335647 -.01956535  00000+0 -27758-1 0  9993",
        "tle_line2": "2 66904  53.1596   8.5203 0001451  86.2662  74.0244 15.59265750  4533"
      },
      "geometry": {
        "type": "Point",
        "coordinates": [
          -164.97339149395296,
          -10.630513151453426
        ]
      }
    }
  ]
}